{
    "links": {
        "self": "http://www.neowsapp.com/rest/v1/neo/3670728?api_key=iIulBulltgU6a56xZRHN4H3l9WmuAYTsLGpBGhQ2"
    },
    "id": "3670728",
    "neo_reference_id": "3670728",
    "name": "(2014 HT190)",
    "designation": "2014 HT190",
    "nasa_jpl_url": "http://ssd.jpl.nasa.gov/sbdb.cgi?sstr=3670728",
    "absolute_magnitude_h": 26.0,
    "estimated_diameter": {
        "kilometers": {
            "estimated_diameter_min": 0.0167708462,
            "estimated_diameter_max": 0.0375007522
        },
        "meters": {
            "estimated_diameter_min": 16.7708462163,
            "estimated_diameter_max": 37.5007521798
        },
        "miles": {
            "estimated_diameter_min": 0.0104209175,
            "estimated_diameter_max": 0.0233018799
        },
        "feet": {
            "estimated_diameter_min": 55.0224631002,
            "estimated_diameter_max": 123.0339677816
        }
    },
    "is_potentially_hazardous_asteroid": false,
    "close_approach_data": [
        {
            "close_approach_date": "2014-05-23",
            "close_approach_date_full": "2014-May-23 01:43",
            "epoch_date_close_approach": 1400809380000,
            "relative_velocity": {
                "kilometers_per_second": "8.1815814801",
                "kilometers_per_hour": "29453.6933282312",
                "miles_per_hour": "18301.3796127557"
            },
            "miss_distance": {
                "astronomical": "0.0728628948",
                "lunar": "28.3436660772",
                "kilometers": "10900133.864114076",
                "miles": "6773029.1136272088"
            },
            "orbiting_body": "Earth"
        }
    ],
    "orbital_data": {
        "orbit_id": "6",
        "orbit_determination_date": "2017-04-06 08:41:10",
        "first_observation_date": "2014-04-24",
        "last_observation_date": "2014-05-05",
        "data_arc_in_days": 11,
        "observations_used": 13,
        "orbit_uncertainty": "9",
        "minimum_orbit_intersection": ".0694531",
        "jupiter_tisserand_invariant": "3.334",
        "epoch_osculation": "2456775.5",
        "eccentricity": ".5476255806935232",
        "semi_major_axis": "2.346235631521435",
        "inclination": "6.641117280598319",
        "ascending_node_longitude": "45.3525468478622",
        "orbital_period": "1312.670924743131",
        "perihelion_distance": "1.061376981365674",
        "perihelion_argument": "211.6569846307647",
        "aphelion_distance": "3.631094281677195",
        "perihelion_time": "2456813.347390629650",
        "mean_anomaly": "349.6203531518456",
        "mean_motion": ".2742499991537835",
        "equinox": "J2000",
        "orbit_class": {
            "orbit_class_type": "AMO",
            "orbit_class_description": "Near-Earth asteroid orbits similar to that of 1221 Amor",
            "orbit_class_range": "1.017 AU < q (perihelion) < 1.3 AU"
        }
    },
    "is_sentry_object": false
}